{"fetched_at":"2026-04-05T12:57:33Z","count":17389,"tles":[{"name":"LAGEOS 2","line1":"1 22195U 92070B   26079.09060082 -.00000009  00000+0  00000+0 0  9994","line2":"2 22195  52.6746 322.9737 0137714 148.3601   4.1736  6.47293426789659","category":"Other"}]}